#cP2023  7 25  0  0  0.00000000      96 ORBIT IGS20 HLM  IGS
## 2272 172800.00000000   900.00000000 60150 0.0000000000000
+   32   G01G02G03G04G05G06G07G08G09G10G11G12G13G14G15G16G17
+        G18G19G20G21G22G23G24G25G26G27G28G29G30G31G32  0  0
+          0  0  0  0  0  0  0  0  0  0  0  0  0  0  0  0  0
+          0  0  0  0  0  0  0  0  0  0  0  0  0  0  0  0  0
+          0  0  0  0  0  0  0  0  0  0  0  0  0  0  0  0  0
++         2  2  2  2  2  2  2  2  2  2  2  2  2  1  2  2  2
++         2  3  2  2  2  2  2  2  2  2  2  2  2  2  2  0  0
++         0  0  0  0  0  0  0  0  0  0  0  0  0  0  0  0  0
++         0  0  0  0  0  0  0  0  0  0  0  0  0  0  0  0  0
++         0  0  0  0  0  0  0  0  0  0  0  0  0  0  0  0  0
%c G  cc GPS ccc cccc cccc cccc cccc ccccc ccccc ccccc ccccc
%c cc cc ccc ccc cccc cccc cccc cccc ccccc ccccc ccccc ccccc
%f  1.2500000  1.025000000  0.00000000000  0.000000000000000
%f  0.0000000  0.000000000  0.00000000000  0.000000000000000
%i    0    0    0    0      0      0      0      0         0
%i    0    0    0    0      0      0      0      0         0
/* RAPID ORBIT COMBINATION FROM WEIGHTED AVERAGE OF:        
/* cod emr esa gfz grg jgx jpl ngs sio usn whu              
/* REFERENCED TO IGS TIME (IGST) AND TO WEIGHTED MEAN POLE: 
/* PCV:IGS20      OL/AL:FES2014b NONE     Y  ORB:CMB CLK:CMB
*  2023  7 25  3 45  0.00000000
PG01 -17979.182107 -14143.290445 -14128.693532    171.409362  8  7  7 103       
PG02 -12801.127206 -14374.792345 -17865.993152   -572.676568  9  7  3  84       
PG03 -12711.499745 -21558.737651   8922.910052   -218.038121  7  5    112       
PG04 -10347.577441 -11089.181616  21812.141866    105.558793  5  5  4  90       
PG05   4389.310574  25346.514935   6200.214874   -136.195225  7  5  4 117       
PG06 -19217.304432   6864.424701  17111.845775    574.505016  6  7  6 119       
PG07 -26065.085784  -6337.504979    208.233812    115.298004  5  5  5 104       
PG08   -520.750809 -18976.818842 -18485.180815   -133.899052  7  6  4  95       
PG09 -17482.730020  -1503.618436  19872.609160   -103.817823  7  6  6 105       
PG10  13098.461634  -7161.502581 -21764.559072    -46.530609  7  9  7 101       
PG11  -4695.318396  14375.931352  21840.965441   -290.674697  7  8  5  93       
PG12   9452.037248  24158.440801   5606.208254   -404.791939  7  7  1  85       
PG13  -8982.817186  20196.807903 -14752.278089    551.517832  6  5  5 115       
PG14 -15044.412850   3664.599223 -21561.088846    132.970577  4  3  6  86       
PG15   3805.723906  18774.937610 -18768.417145     61.212041  6  6  5  95       
PG16   1685.901376 -24379.688210   9516.892424   -476.754222  4  6  6  90       
PG17 -21701.274350  12786.494572  -8158.064645    721.611964  8  7  5 115       
PG18  26091.339023   4383.460174  -3222.700981   -358.083955  6  6  6 101       
PG19 -20643.588232  16372.009256  -1526.651857    348.472536 11 10  6  86       
PG20  -1734.502192  21552.062361  15582.547938    420.854001  8  7  5  89       
PG21 -10585.117818 -14934.852607 -19013.623382    151.730513  8  8  3  84       
PG22  18416.891578 -18908.854254   2483.418728    517.602227  8  9  4 100       
PG23  16398.722779   6533.747263 -19892.624316     47.056320  4  5  7  96       
PG24  14544.657104  14862.873501 -17117.925407   -268.673317  6  6  6  94       
PG25  16034.894558  14350.891317  15426.558906    458.173087  5  5  4 106       
PG26   7914.671782 -17306.211985  18272.243191    235.379066  5  4  3  89       
PG27  10390.124341 -21894.444969 -10624.559647     -9.645945  7  6  5  95       
PG28  20552.049819  -6841.103723  15350.116662     81.011643  6  4  4  92       
PG29  16477.406564   3708.022245  20473.963168   -606.348343  5  6  5  88       
PG30 -24931.614962   1046.317404  -9351.837421   -501.755670  5  5  7  92       
PG31  11103.343949 -12269.469745  20680.043820   -220.667497  5  2  3  94       
PG32  20325.423760 -15729.621444  -6096.862568   -527.819497  8  7  5  74       
*  2023  7 25  4  0  0.00000000
PG01 -16331.230477 -13879.931619 -16251.918970    171.407852  8  7  7 106       
PG02 -10585.431250 -14240.582613 -19310.385123   -572.673169  8  7  2  97       
PG03 -12817.988919 -22450.159019   6212.699844   -218.023403  7  5  1 113       
PG04  -8627.282867 -12875.363897  21567.461464    105.568744  5  5  3  96       
PG05   3848.525742  24604.393128   8895.846741   -136.196254  7  6  5 119       
PG06 -20979.899129   6377.326758  15114.300951    574.501353  6  7  6 115       
PG07 -25887.351891  -6552.911438   3006.887830    115.287748  4  5  5 114       
PG08    903.074200 -20421.253549 -16815.926218   -133.901535  8  6  4  93       
PG09 -16041.915497  -3355.857639  20830.663569   -103.809269  7  5  5 102       
PG10  13933.966781  -4768.180598 -21927.634550    -46.532345  7  9  7  99       
PG11  -7096.186747  13744.733200  21593.844632   -290.689595  7  9  5  91       
PG12   9351.912104  24712.443294   2800.699684   -404.796185  7  8  2  88       
PG13 -10270.039948  21057.174253 -12490.655848    551.522305  6  5  4 112       
PG14 -15744.803480   1303.688292 -21346.512558    132.981340  4  3  5  98       
PG15   2560.362923  20340.911190 -17223.786777     61.215228  6  6  5  94       
PG16   2231.799350 -23187.042955  12021.759655   -476.749978  4  5  6  90       
PG17 -21042.473799  11842.953148 -10749.044225    721.612560  8  6  5 116       
PG18  26246.274294   4626.867779   -360.561392   -358.096509  6  6  5 100       
PG19 -20573.374163  15977.997043  -4399.058155    348.477302 10  9  7  98       
PG20  -2780.082134  19982.459660  17402.884824    420.851985  7  7  5  96       
PG21  -8266.750786 -14751.841681 -20157.380419    151.730058  7  7  2  92       
PG22  18648.715593 -18771.256095   -383.455434    517.607038  7 10  5  87       
PG23  17067.017309   8620.569504 -18501.164509     47.060255  3  5  6  85       
PG24  12563.022304  14802.536445 -18663.820677   -268.684180  6  6  6  93       
PG25  16406.052994  16008.079451  13327.737257    458.175128  5  5  4 109       
PG26   8920.126396 -15336.159798  19548.275195    235.377929  5  4  3  93       
PG27  11257.021300 -22524.769011  -8009.098163     -9.652272  7  6  6  93       
PG28  22135.389052  -6384.964392  13196.760783     81.009764  6  5  3  92       
PG29  14804.020469   5425.014108  21339.817582   -606.349259  5  6  6  81       
PG30 -25787.522505    575.214702  -6769.687789   -501.753089  5  5  6 103       
PG31  13368.143683 -11679.761418  19703.802350   -220.668016  5  3  2  91       
PG32  19946.973063 -14895.807597  -8788.519355   -527.826195  8  7  5  79       
*  2023  7 25  4 15  0.00000000
PG01 -14451.993411 -13677.828634 -18105.840604    171.406275  8  7  7  82       
PG02  -8215.313827 -14214.167594 -20409.601385   -572.669643  8  7  1  87       
PG03 -12856.962983 -23042.938655   3395.874841   -218.008647  8  6  2 103       
PG04  -7033.619854 -14712.883007  20951.612636    105.578648  5  5  3  80       
PG05   3143.678293  23620.443603  11436.352579   -136.197968  6  6  5 107       
PG06 -22529.258326   6026.339798  12858.745095    574.497692  7  6  6 114       
PG07 -25416.021048  -6730.153781   5755.605033    115.278188  4  5  5 112       
PG08   2131.308470 -21772.347738 -14854.322902   -133.903690  7  5  5 100       
PG09 -14644.881189  -5350.866476  21428.051214   -103.800780  6  5  5  83       
PG10  14896.360449  -2430.001734 -21707.144511    -46.533965  7  9  7  97       
PG11  -9479.338208  13250.363185  20975.266315   -290.704532  7  9  5  82       
PG12   9184.047382  24965.026737    -52.983048   -404.800124  7  8  2  81       
PG13 -11318.990577  21798.407310 -10013.835535    551.526580  6  5  4 115       
PG14 -16546.543160   -975.370827 -20764.496350    132.992092  4  4  5  84       
PG15   1482.142851  21805.013130 -15389.878598     61.218519  6  6  5  76       
PG16   2919.490898 -21759.656931  14311.424741   -476.745845  4  5  5  68       
PG17 -20246.829572  10647.723322 -13152.264237    721.613551  7  6  5 114       
PG18  26094.650222   4811.061214   2507.719710   -358.109075  5  5  5 101       
PG19 -20298.556454  15350.223942  -7194.548709    348.482167  9  8  8  96       
PG20  -4003.447782  18306.885227  18926.541548    420.850290  7  7  5  99       
PG21  -5821.055645 -14683.975579 -20944.342834    151.729727  7  7  2  94       
PG22  18669.005917 -18403.946076  -3243.611601    517.611863  7 10  5  80       
PG23  17777.288254  10506.127111 -16792.975566     47.064186  3  6  6 103       
PG24  10425.760328  14831.923386 -19901.595632   -268.695010  6  6  6  97       
PG25  16764.635842  17408.963671  10998.348256    458.177215  6  6  4 108       
PG26  10070.456833 -13304.672325  20481.749803    235.376807  4  5  4  79       
PG27  11905.468800 -22957.423601  -5253.688551     -9.658554  7  7  6 101       
PG28  23484.826698  -6038.897902  10816.024610     81.007946  6  5  3  76       
PG29  13173.829924   7288.708685  21837.337883   -606.349619  5  6  6  93       
PG30 -26371.514698    191.415612  -4072.404101   -501.750514  4  5  6  81       
PG31  15527.543708 -11228.940367  18386.991959   -220.668223  6  4  1  80       
PG32  19430.791489 -13805.936999 -11326.159376   -527.832920  7  7  5  87       
EOF
